STARLINK-31312          
1 59152U 24044A   26068.31670944  .00000647  00000+0  33040-4 0  9992
2 59152  43.0017  58.4291 0001232 266.5226  93.5484 15.27574682114124
FLOCK 4G-5              
1 62663U 25009BG  26068.45638436  .00011278  00000+0  40688-3 0  9997
2 62663  97.4058 151.2478 0002094 314.5072  45.5996 15.28679529 63699
